CCSDS_OMM_VERS = 2.0
CREATION_DATE  = 
ORIGINATOR     = 

OBJECT_NAME    = MR-2
OBJECT_ID      = 2026-015A
CENTER_NAME    = EARTH
REF_FRAME      = TEME
TIME_SYSTEM    = UTC
MEAN_ELEMENT_THEORY = SGP/SGP4

EPOCH          = 2026-02-19T03:30:12.133728
MEAN_MOTION    = 13.52686678
ECCENTRICITY   = .0005019
INCLINATION    = 88.9962
RA_OF_ASC_NODE = 280.5484
ARG_OF_PERICENTER = 71.6792
MEAN_ANOMALY   = 288.4906

EPHEMERIS_TYPE = 0
CLASSIFICATION_TYPE = U
NORAD_CAT_ID   = 67556
ELEMENT_SET_NO = 999
REV_AT_EPOCH   = 375
BSTAR          = .78367E-4
MEAN_MOTION_DOT = .64E-6
MEAN_MOTION_DDOT = 0

CCSDS_OMM_VERS = 2.0
CREATION_DATE  = 
ORIGINATOR     = 

OBJECT_NAME    = MR-1
OBJECT_ID      = 2026-015B
CENTER_NAME    = EARTH
REF_FRAME      = TEME
TIME_SYSTEM    = UTC
MEAN_ELEMENT_THEORY = SGP/SGP4

EPOCH          = 2026-02-19T03:30:55.801152
MEAN_MOTION    = 13.52661832
ECCENTRICITY   = .000509
INCLINATION    = 88.9962
RA_OF_ASC_NODE = 280.5485
ARG_OF_PERICENTER = 70.4541
MEAN_ANOMALY   = 289.7160

EPHEMERIS_TYPE = 0
CLASSIFICATION_TYPE = U
NORAD_CAT_ID   = 67557
ELEMENT_SET_NO = 999
REV_AT_EPOCH   = 375
BSTAR          = .85617E-4
MEAN_MOTION_DOT = .69E-6
MEAN_MOTION_DDOT = 0

CCSDS_OMM_VERS = 2.0
CREATION_DATE  = 
ORIGINATOR     = 

OBJECT_NAME    = ELECTRON R/B
OBJECT_ID      = 2026-015C
CENTER_NAME    = EARTH
REF_FRAME      = TEME
TIME_SYSTEM    = UTC
MEAN_ELEMENT_THEORY = SGP/SGP4

EPOCH          = 2026-02-19T03:27:03.107808
MEAN_MOTION    = 15.85203468
ECCENTRICITY   = .024177
INCLINATION    = 88.9602
RA_OF_ASC_NODE = 279.6482
ARG_OF_PERICENTER = 165.5926
MEAN_ANOMALY   = 195.2417

EPHEMERIS_TYPE = 0
CLASSIFICATION_TYPE = U
NORAD_CAT_ID   = 67558
ELEMENT_SET_NO = 999
REV_AT_EPOCH   = 420
BSTAR          = .12139E-2
MEAN_MOTION_DOT = .5309743E-1
MEAN_MOTION_DDOT = -.15058E-5

CCSDS_OMM_VERS = 2.0
CREATION_DATE  = 
ORIGINATOR     = 

OBJECT_NAME    = ELECTRON KICK STAGE R/B
OBJECT_ID      = 2026-015D
CENTER_NAME    = EARTH
REF_FRAME      = TEME
TIME_SYSTEM    = UTC
MEAN_ELEMENT_THEORY = SGP/SGP4

EPOCH          = 2026-02-19T04:15:48.971232
MEAN_MOTION    = 14.68628888
ECCENTRICITY   = .0527046
INCLINATION    = 89.0491
RA_OF_ASC_NODE = 280.1000
ARG_OF_PERICENTER = 237.9516
MEAN_ANOMALY   = 116.9487

EPHEMERIS_TYPE = 0
CLASSIFICATION_TYPE = U
NORAD_CAT_ID   = 67559
ELEMENT_SET_NO = 999
REV_AT_EPOCH   = 407
BSTAR          = .74781E-3
MEAN_MOTION_DOT = .44694E-3
MEAN_MOTION_DDOT = -.17122E-6

CCSDS_OMM_VERS = 2.0
CREATION_DATE  = 
ORIGINATOR     = 

OBJECT_NAME    = STARLINK-36426
OBJECT_ID      = 2026-014AA
CENTER_NAME    = EARTH
REF_FRAME      = TEME
TIME_SYSTEM    = UTC
MEAN_ELEMENT_THEORY = SGP/SGP4

EPOCH          = 2026-02-19T02:53:53.728800
MEAN_MOTION    = 15.75282314
ECCENTRICITY   = .0002786
INCLINATION    = 97.2833
RA_OF_ASC_NODE = 294.1888
ARG_OF_PERICENTER = 66.7396
MEAN_ANOMALY   = 293.4162

EPHEMERIS_TYPE = 0
CLASSIFICATION_TYPE = U
NORAD_CAT_ID   = 67560
ELEMENT_SET_NO = 999
REV_AT_EPOCH   = 564
BSTAR          = .21323E-2
MEAN_MOTION_DOT = .331933E-2
MEAN_MOTION_DDOT = 0

CCSDS_OMM_VERS = 2.0
CREATION_DATE  = 
ORIGINATOR     = 

OBJECT_NAME    = STARLINK-36621
OBJECT_ID      = 2026-016A
CENTER_NAME    = EARTH
REF_FRAME      = TEME
TIME_SYSTEM    = UTC
MEAN_ELEMENT_THEORY = SGP/SGP4

EPOCH          = 2026-02-19T02:42:51.388128
MEAN_MOTION    = 15.75229183
ECCENTRICITY   = .0002166
INCLINATION    = 97.2824
RA_OF_ASC_NODE = 109.6004
ARG_OF_PERICENTER = 111.8966
MEAN_ANOMALY   = 248.2530

EPHEMERIS_TYPE = 0
CLASSIFICATION_TYPE = U
NORAD_CAT_ID   = 67561
ELEMENT_SET_NO = 999
REV_AT_EPOCH   = 387
BSTAR          = .79047E-3
MEAN_MOTION_DOT = .119649E-2
MEAN_MOTION_DDOT = 0

CCSDS_OMM_VERS = 2.0
CREATION_DATE  = 
ORIGINATOR     = 

OBJECT_NAME    = STARLINK-36398
OBJECT_ID      = 2026-016B
CENTER_NAME    = EARTH
REF_FRAME      = TEME
TIME_SYSTEM    = UTC
MEAN_ELEMENT_THEORY = SGP/SGP4

EPOCH          = 2026-02-19T01:22:02.351424
MEAN_MOTION    = 15.75360702
ECCENTRICITY   = .0001328
INCLINATION    = 97.2824
RA_OF_ASC_NODE = 109.5218
ARG_OF_PERICENTER = 124.9993
MEAN_ANOMALY   = 235.1397

EPHEMERIS_TYPE = 0
CLASSIFICATION_TYPE = U
NORAD_CAT_ID   = 67562
ELEMENT_SET_NO = 999
REV_AT_EPOCH   = 386
BSTAR          = .21243E-2
MEAN_MOTION_DOT = .331796E-2
MEAN_MOTION_DDOT = 0

CCSDS_OMM_VERS = 2.0
CREATION_DATE  = 
ORIGINATOR     = 

OBJECT_NAME    = STARLINK-36403
OBJECT_ID      = 2026-016C
CENTER_NAME    = EARTH
REF_FRAME      = TEME
TIME_SYSTEM    = UTC
MEAN_ELEMENT_THEORY = SGP/SGP4

EPOCH          = 2026-02-19T01:55:40.154304
MEAN_MOTION    = 15.80888321
ECCENTRICITY   = .0001875
INCLINATION    = 97.2835
RA_OF_ASC_NODE = 109.6463
ARG_OF_PERICENTER = 123.8387
MEAN_ANOMALY   = 236.3060

EPHEMERIS_TYPE = 0
CLASSIFICATION_TYPE = U
NORAD_CAT_ID   = 67563
ELEMENT_SET_NO = 999
REV_AT_EPOCH   = 387
BSTAR          = .78269E-3
MEAN_MOTION_DOT = .152945E-2
MEAN_MOTION_DDOT = 0

CCSDS_OMM_VERS = 2.0
CREATION_DATE  = 
ORIGINATOR     = 

OBJECT_NAME    = STARLINK-36593
OBJECT_ID      = 2026-016D
CENTER_NAME    = EARTH
REF_FRAME      = TEME
TIME_SYSTEM    = UTC
MEAN_ELEMENT_THEORY = SGP/SGP4

EPOCH          = 2026-02-19T04:00:01.999584
MEAN_MOTION    = 15.77566879
ECCENTRICITY   = .0002071
INCLINATION    = 97.2839
RA_OF_ASC_NODE = 109.7388
ARG_OF_PERICENTER = 65.0537
MEAN_ANOMALY   = 68.4442

EPHEMERIS_TYPE = 0
CLASSIFICATION_TYPE = U
NORAD_CAT_ID   = 67564
ELEMENT_SET_NO = 999
REV_AT_EPOCH   = 501
BSTAR          = -.14104E-1
MEAN_MOTION_DOT = -.2018046E-1
MEAN_MOTION_DDOT = 0

CCSDS_OMM_VERS = 2.0
CREATION_DATE  = 
ORIGINATOR     = 

OBJECT_NAME    = STARLINK-35725
OBJECT_ID      = 2026-016E
CENTER_NAME    = EARTH
REF_FRAME      = TEME
TIME_SYSTEM    = UTC
MEAN_ELEMENT_THEORY = SGP/SGP4

EPOCH          = 2026-02-19T02:25:04.309248
MEAN_MOTION    = 15.75321000
ECCENTRICITY   = .0001101
INCLINATION    = 97.2829
RA_OF_ASC_NODE = 109.6173
ARG_OF_PERICENTER = 123.8107
MEAN_ANOMALY   = 236.3263

EPHEMERIS_TYPE = 0
CLASSIFICATION_TYPE = U
NORAD_CAT_ID   = 67565
ELEMENT_SET_NO = 999
REV_AT_EPOCH   = 387
BSTAR          = .18687E-2
MEAN_MOTION_DOT = .289905E-2
MEAN_MOTION_DDOT = 0

CCSDS_OMM_VERS = 2.0
CREATION_DATE  = 
ORIGINATOR     = 

OBJECT_NAME    = STARLINK-36394
OBJECT_ID      = 2026-016F
CENTER_NAME    = EARTH
REF_FRAME      = TEME
TIME_SYSTEM    = UTC
MEAN_ELEMENT_THEORY = SGP/SGP4

EPOCH          = 2026-02-19T02:27:37.054944
MEAN_MOTION    = 15.75299305
ECCENTRICITY   = .0000889
INCLINATION    = 97.2837
RA_OF_ASC_NODE = 109.6116
ARG_OF_PERICENTER = 109.6821
MEAN_ANOMALY   = 250.4540

EPHEMERIS_TYPE = 0
CLASSIFICATION_TYPE = U
NORAD_CAT_ID   = 67566
ELEMENT_SET_NO = 999
REV_AT_EPOCH   = 387
BSTAR          = .18395E-2
MEAN_MOTION_DOT = .284951E-2
MEAN_MOTION_DDOT = 0

CCSDS_OMM_VERS = 2.0
CREATION_DATE  = 
ORIGINATOR     = 

OBJECT_NAME    = STARLINK-36352
OBJECT_ID      = 2026-016G
CENTER_NAME    = EARTH
REF_FRAME      = TEME
TIME_SYSTEM    = UTC
MEAN_ELEMENT_THEORY = SGP/SGP4

EPOCH          = 2026-02-19T03:19:47.266464
MEAN_MOTION    = 15.80924326
ECCENTRICITY   = .0001808
INCLINATION    = 97.2831
RA_OF_ASC_NODE = 109.7160
ARG_OF_PERICENTER = 102.4210
MEAN_ANOMALY   = 257.7261

EPHEMERIS_TYPE = 0
CLASSIFICATION_TYPE = U
NORAD_CAT_ID   = 67567
ELEMENT_SET_NO = 999
REV_AT_EPOCH   = 388
BSTAR          = .12346E-2
MEAN_MOTION_DOT = .244282E-2
MEAN_MOTION_DDOT = 0

